#dP2020 12  7  0  0  0.00000000      96 __u+U ITR00 FIT  IAC
## 2135  86400.00000000   900.00000000 59190 0.0000000000000
+  112   C01C02C05C06C07C08C09C10C11C12C13C14C16C19C20C21C22
+        C23C24C25C26C27C28C29C30C32C33C34C35C36C37C40E01E02
+        E03E04E05E07E08E09E11E12E13E14E15E18E19E21E24E25E26
+        E27E30E31E33E36G01G02G03G04G05G06G07G08G09G10G11G12
+        G13G14G15G16G17G18G19G20G21G22G23G24G25G26G27G28G29
+        G30G31G32J01J02J03R01R02R03R04R05R07R08R09R11R12R13
+        R14R15R16R17R18R19R20R21R22R24  0  0  0  0  0  0  0
++        13 13 13  8  8  9  8  8  8  8  9  8  8  8  8  9  8
++         8  8  8  8  8  8  8  8  8  8  9  8  8  8 12  5  5
++         5  5  5  6  5  5  5  5  5  5  5  5  5  5  5  5  5
++         4  4  5  6  5  3  4  4  4  3  4  4  3  4  4  4  4
++         3  4  4  4  4  3  4  3  4  4  3  4  4  4  3  4  4
++         3  4  4  9  8  8  6  6  6  6  6  6  5  6  8  6  6
++         5  5  6  6  6  6  6  6  6  5  0  0  0  0  0  0  0
%c M  cc GPS ccc cccc cccc cccc cccc ccccc ccccc ccccc ccccc
%c cc cc ccc ccc cccc cccc cccc cccc ccccc ccccc ccccc ccccc
%f  0.0000000  0.000000000  0.00000000000  0.000000000000000
%f  0.0000000  0.000000000  0.00000000000  0.000000000000000
%i    0    0    0    0      0      0      0      0         0
%i    0    0    0    0      0      0      0      0         0
/* INFORMATION & ANALYSIS CENTER (IAC)            RAPID DATA
/* S/V CLOCKS ARE ALIGNED TO GNSS TIME                      
/* G:C1WC2W R:C1PC2P E:C1XC5X C:C2IC6I J:C1CC2S             
/* PCV:IGS14_2134 OL/AL:FES2004  NONE     YN ORB:CoN CLK:CoN
*  2020 12 07  7 45  0.00000000
PC01 -34383.096004  24429.030128    233.247984   -673.570167
PC02   4433.159992  41912.607393   -242.580100    687.564979
PC05  21915.208311  36008.924425    -28.079059   -480.426183
PC06 -22439.637832  24064.311276  26523.600802     39.053888
PC07 -16099.305251  38431.389146   8284.893964   -107.462757
PC08  -4872.689450  24164.617200 -34022.507097   -768.185381
PC09  -5079.842399  25168.543548  33637.950223    888.819059
PC10  -5428.859730  41693.998428  -5229.300626   -127.488374
PC11 -27924.174639    616.536063   -383.779844   -801.050147
PC12 -20530.265261 -10067.814199  16060.142285    651.799011
PC13   6978.921585  31761.973372 -26580.097597     42.068461
PC14 -18687.083127   5672.781251 -19935.488193   -367.867241
PC16 -20682.115530  24186.278634  27635.090997   -625.385684
PC19  18839.007887 -15200.579087  13891.113657    645.006101
PC20  15945.505075   3409.690495  22650.516860   -914.713711
PC21  -3373.469274 -20807.159617 -18271.321024   -745.865253
PC22  10896.581156 -25474.995251  -3222.612082   -808.740886
PC23  -2076.736086  21201.430158  18026.768055   -898.651441
PC24 -19949.107522 -14147.899083  13463.973642   -726.721494
PC25 -15261.972996   5991.034107  22579.959232   -852.956203
PC26 -13637.384163 -24246.227645  -2465.437944    932.221376
PC27  11306.444396  14370.387967 -21097.246711    445.246281
PC28 -10144.563441  14897.023199 -21300.254677   -136.995070
PC29  25257.838399  -7685.351301   9037.934816    321.340331
PC30  26034.128221   4719.912964  -8898.674881    414.029994
PC32   3514.585312  20820.274837  18254.052388   -882.276009
PC33 -18786.764939  15236.443094 -13929.413477   -861.677378
PC34 -26255.596523  -4416.301096   8325.119444   -791.999212
PC35   9927.600837 -15251.203013  21166.410156   -525.074458
PC36  15531.880258  -5342.929013 -22533.730491   -812.252808
PC37  12545.933784  24703.514211   3238.479470   -866.855699
PC40 -13527.286642  40011.423402   -831.740567    108.464523
PE01 -11002.896057  19683.370680  19175.608638   -998.236271
PE02  10933.776033 -19808.336297 -19092.038982    181.832220
PE03  22052.076575 -19328.613389  -3997.804515   -373.260043
PE04  -6071.448224  21404.466773  19519.654525   -662.933811
PE05  25343.625606  -5878.612920  14110.330645   -323.307551
PE07 -13812.821109 -10878.501120 -23816.928610   -471.433678
PE08   5712.828515 -21273.107361 -19775.773276   6080.758901
PE09  13888.853741  10591.391500  23891.026279   5840.839695
PE11  22843.630257  16543.095441  -8994.249667   6687.407623
PE12   4328.050903  18299.947304 -22854.361978   5469.525375
PE13 -22679.834296 -16570.331817   9355.607606    407.902291
PE14  17195.116805 -14286.708810   9529.867305  -1251.072299
PE15  -4512.083506 -18242.656681  22883.093984    840.290742
PE18 -12628.581141  21672.794701 -20195.125858  -1366.915442
PE19 -23227.414658  18255.540401   1811.994416    146.845932
PE21 -16599.478158   -946.489810  24493.465423   -635.937831
PE24  12422.413908  22089.057004 -15278.331002   -622.425918
PE25  16601.303887   1127.438754 -24469.736954   -521.736818
PE26 -27378.986001  -4793.110985 -10185.263685   2410.910528
PE27 -12736.597782 -21630.445625  15705.249882     77.439213
PE30   -811.264030 -29455.695426  -2915.840732   3364.525401
PE31   1398.619603  29476.562734   2279.858025   -476.296688
PE33 -16296.513296   9176.200603 -22932.080830   -463.889618
PE36  27498.484724   5148.859830   9674.199499    471.129703
PG01  22199.914316  14507.679093   3195.334025    799.012377
PG02  -8894.542510 -19471.480929  16379.450524   -551.495854
PG03  13298.775803   9462.268977  20891.691383    -23.373503
PG04  21124.803412   3720.545643  15694.293584   -162.125142
PG05  -3623.019363 -24906.784369  -8343.862200    -27.739896
PG06   5732.344199 -13999.885663  21887.465032     -3.411221
PG07  21060.161909   1911.132360 -16030.962475   -429.037511
PG08  14038.337912   9306.548092 -20593.562985     -2.018075
PG09  25092.343929  -6654.627046   5597.029341   -298.484103
PG10 -11655.463113  19624.623304 -13260.062431    -10.247456
PG11  20885.902068  12223.939302 -10978.874707    -88.173910
PG12 -11036.135660 -13426.556009  19890.980601     30.294887
PG13  -3816.069822 -14642.419727 -21964.125311     72.467863
PG14  13584.691267 -17356.212970 -14826.991847     56.446636
PG15 -16057.635860  -8175.034551 -19972.352050   -184.967978
PG16    725.403707  24833.964799  -8932.681494   -246.873235
PG17  18881.290716 -14885.047224  11690.175834    363.796752
PG18 -19670.708869    100.937162 -17879.792627    329.935815
PG19  13612.787437 -15529.491452  16372.946682    -68.565123
PG20 -14873.632624   8379.556257 -20355.013129    525.713889
PG21  20218.498183  16818.953245  -4221.339460     75.314948
PG22  11695.332510  17428.407865  16562.863245   -719.077577
PG23 -14824.469097   9822.903257 -19746.482175    107.944787
PG24 -21790.316740 -15525.360532  -1246.349157      5.469973
PG25 -15201.981894   1174.267623  21482.010402     35.333662
PG26  -4883.399558  25708.599520   3621.647459     10.574997
PG27   1138.123549  15412.635118 -21703.058668    -29.619031
PG28  12323.012151 -20511.787261 -11137.783181    646.291865
PG29 -25344.379335   3532.039724   7168.817339   -251.186934
PG30  14496.764141  -7903.151381 -20795.037621   -348.206419
PG31  -4163.597948  15589.751507  20946.715837    -86.069944
PG32 -17918.607899  16129.410398  11046.725312      6.321319
PJ01 -27604.432652  31237.197650  -1985.055650   -335.155899
PJ02 -25514.017139  24905.165738  27446.808324      0.017960
PJ03 -33126.801514  18150.991516 -13971.365285     -4.027328
PR01 -16794.647903   8101.119726 -17418.536754     71.695508
PR02 -15084.169187  20407.651779   2265.540262    457.580293
PR03  -3583.941783  18016.640521  17704.711112     26.890329
PR04   9579.945146   5349.574270  23046.204621     64.626256
PR05  17531.755651 -10239.738762  15461.253971     62.467506
PR07   3225.515453 -17768.757294 -18008.886545    -41.696412
PR08  -9641.000184  -5427.152853 -22937.223028    -56.123293
PR09   3120.131868 -16910.194680 -18796.086808     11.733132
PR11 -12309.909540 -21297.791395   6946.524625     21.878507
PR12 -11743.767183   -395.154220  22671.045962    186.258943
PR13  -3048.155443  16596.471928  19113.731218    -47.639402
PR14   7468.588509  24063.412769   4027.359528     58.500628
PR15  13466.368325  17329.381163 -12974.675115    106.444490
PR16  11559.418305   -948.595277 -22727.289061     -8.902822
PR17   6098.448425  11125.646110 -22105.698539    380.288328
PR18  21177.946712   8569.631272 -11373.981110     58.803408
PR19  24935.209957   2450.604629   4763.807398   -122.741503
PR20  13469.266804  -6800.573856  20591.239095   -428.284750
PR21  -7326.804913 -11101.320376  21779.075864   -171.413465
PR22 -21731.437998  -8285.127248  10365.666438    -85.658619
PR24 -12776.457660   7629.438337 -20700.106847     23.193978
EOF
